0 CZ-4 DEB
1 26209U 99057CX  13280.50991196  .00000440  00000-0  10492-3 0   733
2 26209 098.5192 208.3152 0031931 015.3984 047.3113 14.58536059720412
0 CZ-4 DEB
1 26209U 99057CX  13282.77331223  .00000504  00000-0  11842-3 0   745
2 26209 098.5194 210.6351 0031782 008.4251 051.8126 14.58540468720744
0 CZ-4 DEB
1 26209U 99057CX  13287.38072206  .00000683  00000-0  15668-3 0   760
2 26209 098.5204 215.3574 0031451 354.1633 124.2450 14.58546939721412
0 CZ-4 DEB
1 26209U 99057CX  13289.76936216  .00000806  00000-0  18299-3 0   775
2 26209 098.5208 217.8059 0031297 346.6456 066.6117 14.58552628721767
0 CZ-4 DEB
1 26209U 99057CX  13292.11547622  .00000877  00000-0  19825-3 0   782
2 26209 098.5209 220.2110 0031152 339.3454 145.6413 14.58556325722105
0 CZ-4 DEB
1 26209U 99057CX  13294.37748792  .00000906  00000-0  20432-3 0   793
2 26209 098.5209 222.5301 0031004 332.1993 143.2017 14.58561438722438
